{"fetched_at":"2026-07-17T17:38:20.702Z","source":"https://celestrak.org/NORAD/elements/gp.php?NAME=ICEYE&FORMAT=JSON","constellation":"iceye","records":[{"OBJECT_NAME":"ICEYE-X53","OBJECT_ID":"2025-135BJ","EPOCH":"2026-07-17T07:00:17.020224","CLASSIFICATION_TYPE":"U","MEAN_MOTION":15.00898283,"ECCENTRICITY":0.00020106,"INCLINATION":97.7359,"RA_OF_ASC_NODE":314.9407,"ARG_OF_PERICENTER":165.215,"MEAN_ANOMALY":194.9133,"EPHEMERIS_TYPE":0,"NORAD_CAT_ID":64584,"ELEMENT_SET_NO":999,"REV_AT_EPOCH":5859,"BSTAR":0.00011032596,"MEAN_MOTION_DOT":0.00001344,"MEAN_MOTION_DDOT":0},{"OBJECT_NAME":"ICEYE-X65","OBJECT_ID":"2025-248H","EPOCH":"2026-07-16T10:22:03.000288","CLASSIFICATION_TYPE":"U","MEAN_MOTION":15.07932171,"ECCENTRICITY":0.0005646,"INCLINATION":45.4058,"RA_OF_ASC_NODE":340.3956,"ARG_OF_PERICENTER":205.8452,"MEAN_ANOMALY":154.2149,"EPHEMERIS_TYPE":0,"NORAD_CAT_ID":66300,"ELEMENT_SET_NO":999,"REV_AT_EPOCH":3993,"BSTAR":0.00010026,"MEAN_MOTION_DOT":0.00001315,"MEAN_MOTION_DDOT":0},{"OBJECT_NAME":"ICEYE-X66","OBJECT_ID":"2025-248J","EPOCH":"2026-07-16T10:17:15.340128","CLASSIFICATION_TYPE":"U","MEAN_MOTION":15.09180943,"ECCENTRICITY":0.0005307,"INCLINATION":45.4025,"RA_OF_ASC_NODE":339.4811,"ARG_OF_PERICENTER":201.7259,"MEAN_ANOMALY":158.3399,"EPHEMERIS_TYPE":0,"NORAD_CAT_ID":66301,"ELEMENT_SET_NO":999,"REV_AT_EPOCH":3992,"BSTAR":0.000099234,"MEAN_MOTION_DOT":0.0000135,"MEAN_MOTION_DDOT":0},{"OBJECT_NAME":"ICEYE-X67","OBJECT_ID":"2025-248K","EPOCH":"2026-07-16T10:52:49.338048","CLASSIFICATION_TYPE":"U","MEAN_MOTION":15.09163646,"ECCENTRICITY":0.0006804,"INCLINATION":45.4062,"RA_OF_ASC_NODE":338.9301,"ARG_OF_PERICENTER":201.9583,"MEAN_ANOMALY":158.1008,"EPHEMERIS_TYPE":0,"NORAD_CAT_ID":66302,"ELEMENT_SET_NO":999,"REV_AT_EPOCH":3994,"BSTAR":0.00011777,"MEAN_MOTION_DOT":0.00001648,"MEAN_MOTION_DDOT":0},{"OBJECT_NAME":"ICEYE-X58","OBJECT_ID":"2025-276CP","EPOCH":"2026-07-16T20:41:40.911648","CLASSIFICATION_TYPE":"U","MEAN_MOTION":15.17311704,"ECCENTRICITY":0.00022997,"INCLINATION":97.4197,"RA_OF_ASC_NODE":270.7066,"ARG_OF_PERICENTER":205.0507,"MEAN_ANOMALY":155.0615,"EPHEMERIS_TYPE":0,"NORAD_CAT_ID":66751,"ELEMENT_SET_NO":999,"REV_AT_EPOCH":3491,"BSTAR":0.000072482466,"MEAN_MOTION_DOT":0.00001379,"MEAN_MOTION_DDOT":0},{"OBJECT_NAME":"ICEYE-X59","OBJECT_ID":"2025-276CQ","EPOCH":"2026-07-17T03:30:18.020160","CLASSIFICATION_TYPE":"U","MEAN_MOTION":15.00763689,"ECCENTRICITY":0.0001159,"INCLINATION":97.4391,"RA_OF_ASC_NODE":268.1632,"ARG_OF_PERICENTER":136.5783,"MEAN_ANOMALY":223.5533,"EPHEMERIS_TYPE":0,"NORAD_CAT_ID":66752,"ELEMENT_SET_NO":999,"REV_AT_EPOCH":3476,"BSTAR":0.00021256347,"MEAN_MOTION_DOT":0.0000264,"MEAN_MOTION_DDOT":0},{"OBJECT_NAME":"ICEYE-X60","OBJECT_ID":"2025-276CR","EPOCH":"2026-07-17T04:28:41.297376","CLASSIFICATION_TYPE":"U","MEAN_MOTION":15.10704246,"ECCENTRICITY":0.00022814,"INCLINATION":97.4241,"RA_OF_ASC_NODE":269.9598,"ARG_OF_PERICENTER":357.96,"MEAN_ANOMALY":2.162,"EPHEMERIS_TYPE":0,"NORAD_CAT_ID":66753,"ELEMENT_SET_NO":999,"REV_AT_EPOCH":3489,"BSTAR":0.00012354587,"MEAN_MOTION_DOT":0.00001984,"MEAN_MOTION_DDOT":0},{"OBJECT_NAME":"ICEYE-X61","OBJECT_ID":"2025-276CS","EPOCH":"2026-07-16T17:56:02.184000","CLASSIFICATION_TYPE":"U","MEAN_MOTION":15.18614124,"ECCENTRICITY":0.00022128,"INCLINATION":97.4193,"RA_OF_ASC_NODE":270.6864,"ARG_OF_PERICENTER":207.8838,"MEAN_ANOMALY":152.2279,"EPHEMERIS_TYPE":0,"NORAD_CAT_ID":66754,"ELEMENT_SET_NO":999,"REV_AT_EPOCH":3490,"BSTAR":0.000079163093,"MEAN_MOTION_DOT":0.00001571,"MEAN_MOTION_DDOT":0},{"OBJECT_NAME":"ICEYE-X62","OBJECT_ID":"2025-276CT","EPOCH":"2026-07-16T17:59:00.861792","CLASSIFICATION_TYPE":"U","MEAN_MOTION":15.10153672,"ECCENTRICITY":0.00011291,"INCLINATION":97.4179,"RA_OF_ASC_NODE":269.0335,"ARG_OF_PERICENTER":210.4552,"MEAN_ANOMALY":149.6612,"EPHEMERIS_TYPE":0,"NORAD_CAT_ID":66755,"ELEMENT_SET_NO":999,"REV_AT_EPOCH":3479,"BSTAR":0.00018242548,"MEAN_MOTION_DOT":0.00002915,"MEAN_MOTION_DDOT":0},{"OBJECT_NAME":"ICEYE-X63","OBJECT_ID":"2026-004K","EPOCH":"2026-07-17T06:26:32.640576","CLASSIFICATION_TYPE":"U","MEAN_MOTION":14.88351099,"ECCENTRICITY":0.00053044,"INCLINATION":97.8015,"RA_OF_ASC_NODE":196.4394,"ARG_OF_PERICENTER":46.4784,"MEAN_ANOMALY":313.6872,"EPHEMERIS_TYPE":0,"NORAD_CAT_ID":67372,"ELEMENT_SET_NO":999,"REV_AT_EPOCH":2777,"BSTAR":0.000052841711,"MEAN_MOTION_DOT":0.00000435,"MEAN_MOTION_DDOT":0},{"OBJECT_NAME":"ICEYE-X64","OBJECT_ID":"2026-004L","EPOCH":"2026-07-17T06:00:34.553088","CLASSIFICATION_TYPE":"U","MEAN_MOTION":14.87990053,"ECCENTRICITY":0.00071411,"INCLINATION":97.8029,"RA_OF_ASC_NODE":196.3401,"ARG_OF_PERICENTER":48.7328,"MEAN_ANOMALY":311.4503,"EPHEMERIS_TYPE":0,"NORAD_CAT_ID":67373,"ELEMENT_SET_NO":999,"REV_AT_EPOCH":2776,"BSTAR":0.000069598004,"MEAN_MOTION_DOT":0.00000584,"MEAN_MOTION_DDOT":0},{"OBJECT_NAME":"ICEYE-X71","OBJECT_ID":"2026-067CG","EPOCH":"2026-07-14T08:41:36.635712","CLASSIFICATION_TYPE":"U","MEAN_MOTION":14.91790708,"ECCENTRICITY":0.00010685,"INCLINATION":97.7625,"RA_OF_ASC_NODE":153.1825,"ARG_OF_PERICENTER":349.9955,"MEAN_ANOMALY":10.1242,"EPHEMERIS_TYPE":0,"NORAD_CAT_ID":68494,"ELEMENT_SET_NO":999,"REV_AT_EPOCH":1577,"BSTAR":0.00015178176,"MEAN_MOTION_DOT":0.00001475,"MEAN_MOTION_DDOT":0},{"OBJECT_NAME":"ICEYE-X73","OBJECT_ID":"2026-067CJ","EPOCH":"2026-07-16T20:54:21.209184","CLASSIFICATION_TYPE":"U","MEAN_MOTION":14.92352585,"ECCENTRICITY":0.00016707,"INCLINATION":97.7624,"RA_OF_ASC_NODE":155.7407,"ARG_OF_PERICENTER":145.8224,"MEAN_ANOMALY":214.3103,"EPHEMERIS_TYPE":0,"NORAD_CAT_ID":68496,"ELEMENT_SET_NO":999,"REV_AT_EPOCH":1615,"BSTAR":0.00010271089,"MEAN_MOTION_DOT":0.00000994,"MEAN_MOTION_DDOT":0},{"OBJECT_NAME":"ICEYE-X75","OBJECT_ID":"2026-067CK","EPOCH":"2026-07-16T21:01:05.712384","CLASSIFICATION_TYPE":"U","MEAN_MOTION":14.92175312,"ECCENTRICITY":0.0001607,"INCLINATION":97.7607,"RA_OF_ASC_NODE":155.7116,"ARG_OF_PERICENTER":142.3326,"MEAN_ANOMALY":217.8006,"EPHEMERIS_TYPE":0,"NORAD_CAT_ID":68497,"ELEMENT_SET_NO":999,"REV_AT_EPOCH":1615,"BSTAR":0.000042729528,"MEAN_MOTION_DOT":0.00000379,"MEAN_MOTION_DDOT":0},{"OBJECT_NAME":"ICEYE-X74","OBJECT_ID":"2026-067CN","EPOCH":"2026-07-16T20:14:06.520992","CLASSIFICATION_TYPE":"U","MEAN_MOTION":14.91797572,"ECCENTRICITY":0.0000687,"INCLINATION":97.7633,"RA_OF_ASC_NODE":155.6362,"ARG_OF_PERICENTER":333.7208,"MEAN_ANOMALY":26.3976,"EPHEMERIS_TYPE":0,"NORAD_CAT_ID":68500,"ELEMENT_SET_NO":999,"REV_AT_EPOCH":1614,"BSTAR":0.00013338719,"MEAN_MOTION_DOT":0.00001289,"MEAN_MOTION_DDOT":0},{"OBJECT_NAME":"ICEYE-X76","OBJECT_ID":"2026-067CQ","EPOCH":"2026-07-17T07:24:23.636160","CLASSIFICATION_TYPE":"U","MEAN_MOTION":14.91753329,"ECCENTRICITY":0.0000456,"INCLINATION":97.764,"RA_OF_ASC_NODE":156.1129,"ARG_OF_PERICENTER":292.9662,"MEAN_ANOMALY":67.1509,"EPHEMERIS_TYPE":0,"NORAD_CAT_ID":68502,"ELEMENT_SET_NO":999,"REV_AT_EPOCH":1621,"BSTAR":0.000060633179,"MEAN_MOTION_DOT":0.00000555,"MEAN_MOTION_DDOT":0}]}
